     2.100          NAVIGATION                              RINEX VERSION / TYPE
fic2rin                                 05/06/2009 01:49:06 PGM / RUN BY / DATE
                                                            END OF HEADER
17 09  5  5 12  0  0.0  .574775040150D-04  .204636307899D-11  .000000000000D+00
     .330000000000D+02 -.401250000000D+02  .466376569313D-08  .499008877700D+00
    -.213645398617D-05  .446539989207D-02  .101625919342D-04  .515367642403D+04
     .216000000000D+06 -.186264514923D-07 -.105006732297D+01  .763684511185D-07
     .959532438869D+00  .185875000000D+03 -.265368557154D+01 -.805783564120D-08
    -.322870591713D-09  .100000000000D+01  .153000000000D+04  .000000000000D+00
     .240000000000D+01  .000000000000D+00 -.102445483208D-07  .330000000000D+02
     .208806000000D+06  .400000000000D+01
18 09  5  5 12  0  0.0 -.596125610173D-04  .329691829393D-11  .000000000000D+00
     .720000000000D+02  .465625000000D+01  .539451041730D-08  .177435041588D+01
     .165775418282D-06  .102668075124D-01  .298023223877D-05  .515359199142D+04
     .216000000000D+06 -.312924385071D-06  .105701764238D+01  .372529029846D-07
     .942574984454D+00  .317375000000D+03 -.242573976216D+01 -.879715215098D-08
    -.178936024832D-09  .100000000000D+01  .153000000000D+04  .000000000000D+00
     .240000000000D+01  .000000000000D+00 -.107102096081D-07  .720000000000D+02
     .208806000000D+06  .400000000000D+01
19 09  5  5 12  0  0.0  .265436246991D-04 -.102318153949D-11  .000000000000D+00
     .330000000000D+02 -.391250000000D+02  .462340686917D-08 -.127040834435D+00
    -.201910734177D-05  .553601514548D-02  .110790133476D-04  .515360234642D+04
     .216000000000D+06  .577419996262D-07 -.993935464945D+00 -.894069671631D-07
     .957293605133D+00  .162156250000D+03 -.370663464124D+00 -.811248077453D-08
    -.330370904131D-09  .100000000000D+01  .153000000000D+04  .000000000000D+00
     .240000000000D+01  .000000000000D+00 -.144354999065D-07  .330000000000D+02
     .208806000000D+06  .400000000000D+01
20 09  5  5 12  0  0.0  .834786333144D-04 -.102318153949D-11  .000000000000D+00
     .530000000000D+02  .188750000000D+02  .534700843865D-08  .192638451228D+01
     .720843672752D-06  .401760486420D-02  .224448740482D-05  .515361557770D+04
     .216000000000D+06 -.260770320892D-07  .100317267495D+01 -.335276126862D-07
     .942248342643D+00  .323875000000D+03  .135293253189D+01 -.870357682462D-08
    -.113576159474D-09  .100000000000D+01  .153000000000D+04  .000000000000D+00
     .240000000000D+01  .000000000000D+00 -.651925802231D-08  .530000000000D+02
     .208806000000D+06  .400000000000D+01
21 09  5  5 12  0  0.0  .156429596245D-04 -.204636307899D-11  .000000000000D+00
     .680000000000D+02  .104031250000D+03  .505663920075D-08  .307006834458D+01
     .521354377270D-05  .151405135402D-01  .952929258347D-05  .515362807083D+04
     .216000000000D+06 -.856816768646D-07 -.121780761800D-02 -.169500708580D-06
     .934626789609D+00  .183875000000D+03 -.261225839258D+01 -.812748139937D-08
     .276797244002D-09  .100000000000D+01  .153000000000D+04  .000000000000D+00
     .240000000000D+01  .000000000000D+00 -.121071934700D-07  .680000000000D+02
     .208806000000D+06  .400000000000D+01
22 09  5  5 12  0  0.0  .200288370252D-03 -.102318153949D-11  .000000000000D+00
     .230000000000D+02  .362500000000D+01  .552523014801D-08  .732956605465D+00
     .307336449623D-06  .492907618172D-02  .268593430519D-05  .515365767097D+04
     .216000000000D+06 -.689178705215D-07  .106275363006D+01  .651925802231D-07
     .940234562761D+00  .319781250000D+03 -.187122143225D+01 -.892644325076D-08
    -.176078762959D-09  .100000000000D+01  .153000000000D+04  .000000000000D+00
     .240000000000D+01  .000000000000D+00 -.176951289177D-07  .230000000000D+02
     .208806000000D+06  .400000000000D+01
23 09  5  5 12  0  0.0  .389853958040D-03  .227373675443D-12  .000000000000D+00
     .530000000000D+02 -.881562500000D+02  .407552690491D-08 -.668354965244D+00
    -.469200313091D-05  .602054339834D-02  .943057239056D-05  .515361867523D+04
     .216000000000D+06  .484287738800D-07  .208025642584D+01 -.216066837311D-06
     .970352786631D+00  .204312500000D+03  .287692526854D+01 -.793425906517D-08
    -.426089176896D-09  .100000000000D+01  .153000000000D+04  .000000000000D+00
     .240000000000D+01  .000000000000D+00 -.200234353542D-07  .530000000000D+02
     .208806000000D+06  .400000000000D+01
24 09  5  5 12  0  0.0  .186491757631D-03  .295585778076D-11  .000000000000D+00
     .105000000000D+03  .942812500000D+02  .479912847439D-08  .170480518048D+01
     .491924583912D-05  .675010937266D-02  .881217420101D-05  .515368239212D+04
     .216000000000D+06  .108033418655D-06  .305236833196D-01  .931322574615D-07
     .951263525567D+00  .203656250000D+03 -.645960877149D+00 -.814819654795D-08
     .170721396946D-09  .100000000000D+01  .153000000000D+04  .000000000000D+00
     .240000000000D+01  .000000000000D+00 -.139698386192D-08  .105000000000D+03
     .208806000000D+06  .400000000000D+01
25 09  5  5 12  0  0.0  .396174844354D-03  .200088834390D-10  .000000000000D+00
     .260000000000D+02  .981250000000D+01  .396909390012D-08  .220080886896D+01
     .564381480217D-06  .115032931790D-01  .106319785118D-04  .515365278053D+04
     .216000000000D+06  .141561031342D-06  .302747841493D+01  .577419996262D-07
     .969706176840D+00  .177187500000D+03 -.120772950660D+01 -.755245744731D-08
     .332156692802D-09  .100000000000D+01  .153000000000D+04  .000000000000D+00
     .240000000000D+01  .000000000000D+00 -.745058059692D-08  .260000000000D+02
     .208806000000D+06  .400000000000D+01
26 09  5  5 12  0  0.0  .597485341132D-04  .147792889038D-11  .000000000000D+00
     .520000000000D+02 -.620312500000D+02  .353907598815D-08 -.176523546633D+01
    -.325404107571D-05  .204250278184D-01  .919960439205D-05  .515487796211D+04
     .216000000000D+06  .378116965294D-06  .212942700135D+01 -.100582838058D-06
     .992708596012D+00  .214500000000D+03  .100093208571D+01 -.738530762771D-08
    -.276797244002D-09  .100000000000D+01  .153000000000D+04  .000000000000D+00
     .240000000000D+01  .000000000000D+00 -.651925802231D-08  .520000000000D+02
     .208806000000D+06  .400000000000D+01
27 09  5  5 12  0  0.0  .465153716505D-04  .318323145621D-11  .000000000000D+00
     .138000000000D+03  .201250000000D+02  .401838166744D-08  .296165775579D+00
     .110641121864D-05  .208441939903D-01  .104028731585D-04  .515509450912D+04
     .216000000000D+06 -.433996319771D-06  .306375118197D+01 -.152736902237D-06
     .974413368845D+00  .194156250000D+03 -.161206123010D+01 -.807819363205D-08
     .257867884090D-09  .100000000000D+01  .153000000000D+04  .000000000000D+00
     .240000000000D+01  .000000000000D+00 -.419095158577D-08  .138000000000D+03
     .208806000000D+06  .400000000000D+01
28 09  5  5 12  0  0.0 -.245501287282D-04 -.341060513165D-12  .000000000000D+00
     .780000000000D+02 -.953125000000D+01  .485877381600D-08  .100028761909D+01
    -.556930899620D-06  .148618477397D-01  .462494790554D-05  .515363700104D+04
     .216000000000D+06 -.193715095520D-06 -.208449244265D+01  .447034835815D-07
     .966148598527D+00  .294437500000D+03 -.202708227218D+01 -.853856995143D-08
     .203579908492D-10  .100000000000D+01  .153000000000D+04  .000000000000D+00
     .340000000000D+01  .000000000000D+00 -.107102096081D-07  .780000000000D+02
     .208806000000D+06  .400000000000D+01
29 09  5  5 12  0  0.0  .169361010194D-04  .397903932026D-11  .000000000000D+00
     .260000000000D+02 -.303437500000D+02  .457161899771D-08  .308476787856D+01
    -.184029340744D-05  .342969095800D-02  .104419887066D-04  .515369295502D+04
     .216000000000D+06  .143423676491D-06 -.104186838689D+01  .745058059692D-07
     .959754467409D+00  .174781250000D+03 -.132964283657D+01 -.798176104381D-08
    -.306798493674D-09  .100000000000D+01  .153000000000D+04  .000000000000D+00
     .240000000000D+01  .000000000000D+00 -.884756445885D-08  .260000000000D+02
     .208806000000D+06  .400000000000D+01
30 09  5  5 12  0  0.0  .144047196954D-03  .272848410532D-11  .000000000000D+00
     .110000000000D+02 -.700000000000D+01  .511128433408D-08  .147525751239D+01
    -.458210706711D-06  .113352624467D-01  .464916229248D-05  .515359594345D+04
     .216000000000D+06 -.163912773132D-06 -.215704216946D+01 -.271946191788D-06
     .951572362203D+00  .284406250000D+03  .141464164660D+01 -.855142762986D-08
     .207865801302D-09  .100000000000D+01  .153000000000D+04  .000000000000D+00
     .240000000000D+01  .000000000000D+00 -.838190317154D-08  .110000000000D+02
     .208806000000D+06  .400000000000D+01
32 09  5  5 12  0  0.0  .265688635409D-03 -.511590769747D-11  .000000000000D+00
     .109000000000D+03 -.312500000000D-01  .489984695544D-08 -.149225473623D+01
     .745058059692D-07  .133397661848D-01  .285543501377D-05  .515357438850D+04
     .216000000000D+06 -.335276126862D-06  .111231352611D+01  .171363353729D-06
     .964171273101D+00  .326062500000D+03 -.117100375136D+01 -.862071623029D-08
    -.188222125921D-09  .100000000000D+01  .153000000000D+04  .000000000000D+00
     .240000000000D+01  .000000000000D+00 -.325962901115D-08  .109000000000D+03
     .208806000000D+06  .400000000000D+01
 6 09  5  5 11 59 44.0  .110005959868D-03  .159161572810D-10  .000000000000D+00
     .900000000000D+01 -.548125000000D+02  .521914596981D-08  .159984436465D+01
    -.291131436825D-05  .596617837436D-02  .103209167719D-04  .515370754242D+04
     .215984000000D+06  .109896063805D-06 -.111272041483D+01 -.169500708580D-06
     .933539725905D+00  .165656250000D+03 -.138302621092D+01 -.831106047474D-08
    -.386087510666D-09  .100000000000D+01  .153000000000D+04  .000000000000D+00
     .240000000000D+01  .000000000000D+00 -.465661287308D-08  .900000000000D+01
     .209706000000D+06  .400000000000D+01
